{"type": "FeatureCollection", "features": [ {"type": "Feature", "properties": {"norad_id": 44804, "name": "CARTOSAT-3", "group": "resource", "lat": 51.694376385271205, "lon": 44.54768588628992, "alt_km": 493.9376076408762, "timestamp": "2025-12-20T14:38:01.616250+00:00", "meta": {"OBJECT_NAME": "CARTOSAT-3", "OBJECT_ID": "2019-081A", "EPOCH": "2025-12-20T06:30:03.353760", "MEAN_MOTION": 15.19208798, "ECCENTRICITY": 0.00139339, "INCLINATION": 97.458, "RA_OF_ASC_NODE": 53.7591, "ARG_OF_PERICENTER": 59.7452, "MEAN_ANOMALY": 300.516, "EPHEMERIS_TYPE": 0, "CLASSIFICATION_TYPE": "U", "NORAD_CAT_ID": 44804, "ELEMENT_SET_NO": 999, "REV_AT_EPOCH": 33630, "BSTAR": 6.3343509e-05, "MEAN_MOTION_DOT": 1.267e-05, "MEAN_MOTION_DDOT": 0}, "tle": {"line1": "1 44804U 19081A   25354.27087215  .00001267  00000+0  63344-4 0  9999", "line2": "2 44804  97.4580  53.7591 0013933  59.7452 300.5160 15.19208798336306"}}, "geometry": {"type": "Point", "coordinates": [44.54768588628992, 51.694376385271205]}}, {"type": "Feature", "properties": {"norad_id": 44819, "name": "GAOFEN-12 01", "group": "resource", "lat": 33.13342409179048, "lon": -174.1742965968496, "alt_km": 624.3745579464585, "timestamp": "2025-12-20T14:38:01.616261+00:00", "meta": {"OBJECT_NAME": "GAOFEN-12 01", "OBJECT_ID": "2019-082A", "EPOCH": "2025-12-20T07:29:13.368192", "MEAN_MOTION": 14.80665568, "ECCENTRICITY": 0.00018133, "INCLINATION": 97.8124, "RA_OF_ASC_NODE": 0.3942, "ARG_OF_PERICENTER": 195.572, "MEAN_ANOMALY": 164.5437, "EPHEMERIS_TYPE": 0, "CLASSIFICATION_TYPE": "U", "NORAD_CAT_ID": 44819, "ELEMENT_SET_NO": 999, "REV_AT_EPOCH": 32762, "BSTAR": 5.1850572e-05, "MEAN_MOTION_DOT": 3.48e-06, "MEAN_MOTION_DDOT": 0}, "tle": {"line1": "1 44819U 19082A   25354.31196028  .00000348  00000+0  51851-4 0  9993", "line2": "2 44819  97.8124   0.3942 0001813 195.5720 164.5437 14.80665568327628"}}, "geometry": {"type": "Point", "coordinates": [-174.1742965968496, 33.13342409179048]}}, {"type": "Feature", "properties": {"norad_id": 44873, "name": "CSG-1", "group": "resource", "lat": -59.511602287127396, "lon": -170.578922262645, "alt_km": 630.5409504959362, "timestamp": "2025-12-20T14:38:01.616270+00:00", "meta": {"OBJECT_NAME": "CSG-1", "OBJECT_ID": "2019-092A", "EPOCH": "2025-12-20T06:48:17.495712", "MEAN_MOTION": 14.82149755, "ECCENTRICITY": 0.00014807, "INCLINATION": 97.8803, "RA_OF_ASC_NODE": 175.494, "ARG_OF_PERICENTER": 86.0364, "MEAN_ANOMALY": 274.1018, "EPHEMERIS_TYPE": 0, "CLASSIFICATION_TYPE": "U", "NORAD_CAT_ID": 44873, "ELEMENT_SET_NO": 999, "REV_AT_EPOCH": 32497, "BSTAR": 5.913949e-05, "MEAN_MOTION_DOT": 4.19e-06, "MEAN_MOTION_DDOT": 0}, "tle": {"line1": "1 44873U 19092A   25354.28353583  .00000419  00000+0  59139-4 0  9997", "line2": "2 44873  97.8803 175.4940 0001480  86.0364 274.1018 14.82149755324977"}}, "geometry": {"type": "Point", "coordinates": [-170.578922262645, -59.511602287127396]}}, {"type": "Feature", "properties": {"norad_id": 46277, "name": "NEMO-HD", "group": "resource", "lat": -53.44752438491326, "lon": 63.4543477090532, "alt_km": 451.9852812572326, "timestamp": "2025-12-20T14:38:01.616280+00:00", "meta": {"OBJECT_NAME": "NEMO-HD", "OBJECT_ID": "2020-061F", "EPOCH": "2025-12-20T05:30:51.274368", "MEAN_MOTION": 15.40472454, "ECCENTRICITY": 0.00013872, "INCLINATION": 97.2203, "RA_OF_ASC_NODE": 53.2329, "ARG_OF_PERICENTER": 51.6017, "MEAN_ANOMALY": 308.5354, "EPHEMERIS_TYPE": 0, "CLASSIFICATION_TYPE": "U", "NORAD_CAT_ID": 46277, "ELEMENT_SET_NO": 999, "REV_AT_EPOCH": 29439, "BSTAR": 0.00018713855, "MEAN_MOTION_DOT": 7.5e-05, "MEAN_MOTION_DDOT": 0}, "tle": {"line1": "1 46277U 20061F   25354.22976012  .00007500  00000+0  18714-3 0  9998", "line2": "2 46277  97.2203  53.2329 0001387  51.6017 308.5354 15.40472454294395"}}, "geometry": {"type": "Point", "coordinates": [63.4543477090532, -53.44752438491326]}}, {"type": "Feature", "properties": {"norad_id": 46984, "name": "SENTINEL-6A", "group": "resource", "lat": 24.42464853679072, "lon": 157.61209610063392, "alt_km": 1338.8538361962292, "timestamp": "2025-12-20T14:38:01.616291+00:00", "meta": {"OBJECT_NAME": "SENTINEL-6A", "OBJECT_ID": "2020-086A", "EPOCH": "2025-12-19T19:45:19.960416", "MEAN_MOTION": 12.80930846, "ECCENTRICITY": 0.0007715, "INCLINATION": 66.0393, "RA_OF_ASC_NODE": 147.5954, "ARG_OF_PERICENTER": 269.316, "MEAN_ANOMALY": 90.6971, "EPHEMERIS_TYPE": 0, "CLASSIFICATION_TYPE": "U", "NORAD_CAT_ID": 46984, "ELEMENT_SET_NO": 999, "REV_AT_EPOCH": 23735, "BSTAR": -1.8192625e-05, "MEAN_MOTION_DOT": -6.5e-07, "MEAN_MOTION_DDOT": 0}, "tle": {"line1": "1 46984U 20086A   25353.82314769 -.00000065  00000+0 -18193-4 0  9993", "line2": "2 46984  66.0393 147.5954 0007715 269.3160  90.6971 12.80930846237355"}}, "geometry": {"type": "Point", "coordinates": [157.61209610063392, 24.42464853679072]}}, {"type": "Feature", "properties": {"norad_id": 48079, "name": "GAOFEN-12 02", "group": "resource", "lat": 21.284347688266617, "lon": 171.7130704357461, "alt_km": 626.3394581918892, "timestamp": "2025-12-20T14:38:01.616301+00:00", "meta": {"OBJECT_NAME": "GAOFEN-12 02", "OBJECT_ID": "2021-026A", "EPOCH": "2025-12-20T05:48:42.592896", "MEAN_MOTION": 14.80683375, "ECCENTRICITY": 0.00036006, "INCLINATION": 97.9854, "RA_OF_ASC_NODE": 348.2124, "ARG_OF_PERICENTER": 86.1021, "MEAN_ANOMALY": 274.0602, "EPHEMERIS_TYPE": 0, "CLASSIFICATION_TYPE": "U", "NORAD_CAT_ID": 48079, "ELEMENT_SET_NO": 999, "REV_AT_EPOCH": 25528, "BSTAR": 5.2185662e-05, "MEAN_MOTION_DOT": 3.48e-06, "MEAN_MOTION_DDOT": 0}, "tle": {"line1": "1 48079U 21026A   25354.24215964  .00000348  00000+0  52186-4 0  9991", "line2": "2 48079  97.9854 348.2124 0003600  86.1021 274.0602 14.80683375255281"}}, "geometry": {"type": "Point", "coordinates": [171.7130704357461, 21.284347688266617]}}, {"type": "Feature", "properties": {"norad_id": 48268, "name": "PLEIADES NEO 3", "group": "resource", "lat": -71.65327873528614, "lon": -137.79842405252384, "alt_km": 632.2405802766807, "timestamp": "2025-12-20T14:38:01.616311+00:00", "meta": {"OBJECT_NAME": "PLEIADES NEO 3", "OBJECT_ID": "2021-034A", "EPOCH": "2025-12-20T07:00:38.433600", "MEAN_MOTION": 14.81672745, "ECCENTRICITY": 0.00013341, "INCLINATION": 97.8951, "RA_OF_ASC_NODE": 66.6253, "ARG_OF_PERICENTER": 91.5207, "MEAN_ANOMALY": 268.6159, "EPHEMERIS_TYPE": 0, "CLASSIFICATION_TYPE": "U", "NORAD_CAT_ID": 48268, "ELEMENT_SET_NO": 999, "REV_AT_EPOCH": 25116, "BSTAR": 5.5672015e-05, "MEAN_MOTION_DOT": 3.86e-06, "MEAN_MOTION_DDOT": 0}, "tle": {"line1": "1 48268U 21034A   25354.29211150  .00000386  00000+0  55672-4 0  9993", "line2": "2 48268  97.8951  66.6253 0001334  91.5207 268.6159 14.81672745251169"}}, "geometry": {"type": "Point", "coordinates": [-137.79842405252384, -71.65327873528614]}}, {"type": "Feature", "properties": {"norad_id": 49070, "name": "PLEIADES NEO 4", "group": "resource", "lat": 71.64303858020575, "lon": 42.21291586558996, "alt_km": 616.2594048111814, "timestamp": "2025-12-20T14:38:01.616321+00:00", "meta": {"OBJECT_NAME": "PLEIADES NEO 4", "OBJECT_ID": "2021-073E", "EPOCH": "2025-12-20T06:11:59.934048", "MEAN_MOTION": 14.81672687, "ECCENTRICITY": 0.0001325, "INCLINATION": 97.8952, "RA_OF_ASC_NODE": 66.5879, "ARG_OF_PERICENTER": 92.0917, "MEAN_ANOMALY": 268.0447, "EPHEMERIS_TYPE": 0, "CLASSIFICATION_TYPE": "U", "NORAD_CAT_ID": 49070, "ELEMENT_SET_NO": 999, "REV_AT_EPOCH": 23487, "BSTAR": -2.8326348e-05, "MEAN_MOTION_DOT": -2.75e-06, "MEAN_MOTION_DDOT": 0}, "tle": {"line1": "1 49070U 21073E   25354.25833257 -.00000275  00000+0 -28326-4 0  9997", "line2": "2 49070  97.8952  66.5879 0001325  92.0917 268.0447 14.81672687234877"}}, "geometry": {"type": "Point", "coordinates": [42.21291586558996, 71.64303858020575]}}, {"type": "Feature", "properties": {"norad_id": 49260, "name": "LANDSAT 9", "group": "resource", "lat": 63.58801370247757, "lon": -100.4975874644002, "alt_km": 695.6191623021441, "timestamp": "2025-12-20T14:38:01.616331+00:00", "meta": {"OBJECT_NAME": "LANDSAT 9", "OBJECT_ID": "2021-088A", "EPOCH": "2025-12-20T04:13:07.784256", "MEAN_MOTION": 14.57105039, "ECCENTRICITY": 0.0001104, "INCLINATION": 98.2085, "RA_OF_ASC_NODE": 62.1788, "ARG_OF_PERICENTER": 91.1503, "MEAN_ANOMALY": 268.9822, "EPHEMERIS_TYPE": 0, "CLASSIFICATION_TYPE": "U", "NORAD_CAT_ID": 49260, "ELEMENT_SET_NO": 999, "REV_AT_EPOCH": 22493, "BSTAR": 7.8911172e-05, "MEAN_MOTION_DOT": 3.1e-06, "MEAN_MOTION_DDOT": 0}, "tle": {"line1": "1 49260U 21088A   25354.17578454  .00000310  00000+0  78911-4 0  9993", "line2": "2 49260  98.2085  62.1788 0001104  91.1503 268.9822 14.57105039224934"}}, "geometry": {"type": "Point", "coordinates": [-100.4975874644002, 63.58801370247757]}}, {"type": "Feature", "properties": {"norad_id": 51444, "name": "CSG-2", "group": "resource", "lat": 59.37424900935957, "lon": 9.342503218876269, "alt_km": 616.0048055336765, "timestamp": "2025-12-20T14:38:01.616341+00:00", "meta": {"OBJECT_NAME": "CSG-2", "OBJECT_ID": "2022-008A", "EPOCH": "2025-12-20T05:59:40.933248", "MEAN_MOTION": 14.82148388, "ECCENTRICITY": 0.0001438, "INCLINATION": 97.8797, "RA_OF_ASC_NODE": 175.459, "ARG_OF_PERICENTER": 84.1929, "MEAN_ANOMALY": 275.9448, "EPHEMERIS_TYPE": 0, "CLASSIFICATION_TYPE": "U", "NORAD_CAT_ID": 51444, "ELEMENT_SET_NO": 999, "REV_AT_EPOCH": 21008, "BSTAR": -2.6724837e-05, "MEAN_MOTION_DOT": -2.65e-06, "MEAN_MOTION_DDOT": 0}, "tle": {"line1": "1 51444U 22008A   25354.24977932 -.00000265  00000+0 -26725-4 0  9992", "line2": "2 51444  97.8797 175.4590 0001438  84.1929 275.9448 14.82148388210084"}}, "geometry": {"type": "Point", "coordinates": [9.342503218876269, 59.37424900935957]}}]}